{
  "type": "FeatureCollection",
  "features": [
    {
      "type": "Feature",
      "properties": {
        "norad_id": 38474,
        "name": "IRIDIUM 33 DEB",
        "group": "iridium-33-debris",
        "lat": -63.40113172509476,
        "lon": 3.927312569618166,
        "alt_km": 749.4702521241124,
        "timestamp": "2025-12-09T23:33:24.239996+00:00",
        "meta_object_name": "IRIDIUM 33 DEB",
        "meta_object_id": "1997-051AAB",
        "meta_epoch": "2025-12-08T08:07:09.463872",
        "meta_mean_motion": 14.50663948,
        "meta_eccentricity": 0.00281226,
        "meta_inclination": 86.3436,
        "meta_ra_of_asc_node": 11.9798,
        "meta_arg_of_pericenter": 101.673,
        "meta_mean_anomaly": 258.7634,
        "meta_ephemeris_type": 0,
        "meta_classification_type": "U",
        "meta_norad_cat_id": 38474,
        "meta_element_set_no": 999,
        "meta_rev_at_epoch": 65254,
        "meta_bstar": 0.0008115799,
        "meta_mean_motion_dot": 3.222e-05,
        "meta_mean_motion_ddot": 0,
        "tle_line1": "1 38474U 97051AAB 25342.33830398  .00003222  00000+0  81158-3 0  9995",
        "tle_line2": "2 38474  86.3436  11.9798 0028122 101.6730 258.7634 14.50663948652549"
      },
      "geometry": {
        "type": "Point",
        "coordinates": [
          3.927312569618166,
          -63.40113172509476
        ]
      }
    },
    {
      "type": "Feature",
      "properties": {
        "norad_id": 39777,
        "name": "IRIDIUM 33 DEB",
        "group": "iridium-33-debris",
        "lat": -72.39876078311215,
        "lon": 163.5171497625304,
        "alt_km": 713.1538237418235,
        "timestamp": "2025-12-09T23:33:24.240007+00:00",
        "meta_object_name": "IRIDIUM 33 DEB",
        "meta_object_id": "1997-051AAJ",
        "meta_epoch": "2025-12-09T12:20:58.659648",
        "meta_mean_motion": 14.56304197,
        "meta_eccentricity": 0.00597111,
        "meta_inclination": 85.9626,
        "meta_ra_of_asc_node": 176.6076,
        "meta_arg_of_pericenter": 197.4862,
        "meta_mean_anomaly": 162.4291,
        "meta_ephemeris_type": 0,
        "meta_classification_type": "U",
        "meta_norad_cat_id": 39777,
        "meta_element_set_no": 999,
        "meta_rev_at_epoch": 60138,
        "meta_bstar": 0.0037430645,
        "meta_mean_motion_dot": 0.00017025,
        "meta_mean_motion_ddot": 0,
        "tle_line1": "1 39777U 97051AAJ 25343.51456782  .00017025  00000+0  37431-2 0  9994",
        "tle_line2": "2 39777  85.9626 176.6076 0059711 197.4862 162.4291 14.56304197601387"
      },
      "geometry": {
        "type": "Point",
        "coordinates": [
          163.5171497625304,
          -72.39876078311215
        ]
      }
    },
    {
      "type": "Feature",
      "properties": {
        "norad_id": 39778,
        "name": "IRIDIUM 33 DEB",
        "group": "iridium-33-debris",
        "lat": 37.11513451148194,
        "lon": -138.32520099599486,
        "alt_km": 709.5848931938817,
        "timestamp": "2025-12-09T23:33:24.240018+00:00",
        "meta_object_name": "IRIDIUM 33 DEB",
        "meta_object_id": "1997-051AAK",
        "meta_epoch": "2025-12-09T14:38:46.743936",
        "meta_mean_motion": 14.5422784,
        "meta_eccentricity": 0.00083101,
        "meta_inclination": 86.3774,
        "meta_ra_of_asc_node": 44.5837,
        "meta_arg_of_pericenter": 51.0952,
        "meta_mean_anomaly": 309.0995,
        "meta_ephemeris_type": 0,
        "meta_classification_type": "U",
        "meta_norad_cat_id": 39778,
        "meta_element_set_no": 999,
        "meta_rev_at_epoch": 60647,
        "meta_bstar": 0.0013887539,
        "meta_mean_motion_dot": 5.904e-05,
        "meta_mean_motion_ddot": 0,
        "tle_line1": "1 39778U 97051AAK 25343.61026324  .00005904  00000+0  13888-2 0  9994",
        "tle_line2": "2 39778  86.3774  44.5837 0008310  51.0952 309.0995 14.54227840606471"
      },
      "geometry": {
        "type": "Point",
        "coordinates": [
          -138.32520099599486,
          37.11513451148194
        ]
      }
    },
    {
      "type": "Feature",
      "properties": {
        "norad_id": 39781,
        "name": "IRIDIUM 33 DEB",
        "group": "iridium-33-debris",
        "lat": -50.616327701435104,
        "lon": 83.55127218780488,
        "alt_km": 749.2021469783022,
        "timestamp": "2025-12-09T23:33:24.240029+00:00",
        "meta_object_name": "IRIDIUM 33 DEB",
        "meta_object_id": "1997-051AAN",
        "meta_epoch": "2025-12-09T13:09:45.576288",
        "meta_mean_motion": 14.20481305,
        "meta_eccentricity": 0.01781512,
        "meta_inclination": 86.3699,
        "meta_ra_of_asc_node": 259.2946,
        "meta_arg_of_pericenter": 283.4405,
        "meta_mean_anomaly": 255.4968,
        "meta_ephemeris_type": 0,
        "meta_classification_type": "U",
        "meta_norad_cat_id": 39781,
        "meta_element_set_no": 999,
        "meta_rev_at_epoch": 8061,
        "meta_bstar": 0.0082391189,
        "meta_mean_motion_dot": 0.00020802,
        "meta_mean_motion_ddot": 0,
        "tle_line1": "1 39781U 97051AAN 25343.54844417  .00020802  00000+0  82391-2 0  9990",
        "tle_line2": "2 39781  86.3699 259.2946 0178151 283.4405 255.4968 14.20481305 80619"
      },
      "geometry": {
        "type": "Point",
        "coordinates": [
          83.55127218780488,
          -50.616327701435104
        ]
      }
    },
    {
      "type": "Feature",
      "properties": {
        "norad_id": 39783,
        "name": "IRIDIUM 33 DEB",
        "group": "iridium-33-debris",
        "lat": 34.20410144893467,
        "lon": 74.08125832161863,
        "alt_km": 465.4999695037113,
        "timestamp": "2025-12-09T23:33:24.240039+00:00",
        "meta_object_name": "IRIDIUM 33 DEB",
        "meta_object_id": "1997-051AAQ",
        "meta_epoch": "2025-11-16T15:05:40.850592",
        "meta_mean_motion": 15.19327111,
        "meta_eccentricity": 0.00057535,
        "meta_inclination": 86.1306,
        "meta_ra_of_asc_node": 268.8004,
        "meta_arg_of_pericenter": 179.9151,
        "meta_mean_anomaly": 1.8316,
        "meta_ephemeris_type": 0,
        "meta_classification_type": "U",
        "meta_norad_cat_id": 39783,
        "meta_element_set_no": 999,
        "meta_rev_at_epoch": 60401,
        "meta_bstar": 0.010398125,
        "meta_mean_motion_dot": 0.00226179,
        "meta_mean_motion_ddot": 0,
        "tle_line1": "1 39783U 97051AAQ 25320.62894503  .00226179  00000+0  10398-1 0  9999",
        "tle_line2": "2 39783  86.1306 268.8004 0005753 179.9151   1.8316 15.19327111604018"
      },
      "geometry": {
        "type": "Point",
        "coordinates": [
          74.08125832161863,
          34.20410144893467
        ]
      }
    },
    {
      "type": "Feature",
      "properties": {
        "norad_id": 40996,
        "name": "IRIDIUM 33 DEB",
        "group": "iridium-33-debris",
        "lat": 12.195787226461976,
        "lon": 3.487511684372052,
        "alt_km": 576.3371459354439,
        "timestamp": "2025-12-09T23:33:24.240050+00:00",
        "meta_object_name": "IRIDIUM 33 DEB",
        "meta_object_id": "1997-051ABJ",
        "meta_epoch": "2025-12-09T01:09:30.547008",
        "meta_mean_motion": 14.95892806,
        "meta_eccentricity": 0.00121636,
        "meta_inclination": 86.3511,
        "meta_ra_of_asc_node": 3.133,
        "meta_arg_of_pericenter": 73.8642,
        "meta_mean_anomaly": 316.0312,
        "meta_ephemeris_type": 0,
        "meta_classification_type": "U",
        "meta_norad_cat_id": 40996,
        "meta_element_set_no": 999,
        "meta_rev_at_epoch": 62433,
        "meta_bstar": 0.0032118853,
        "meta_mean_motion_dot": 0.00036132,
        "meta_mean_motion_ddot": 0,
        "tle_line1": "1 40996U 97051ABJ 25343.04827022  .00036132  00000+0  32119-2 0  9994",
        "tle_line2": "2 40996  86.3511   3.1330 0012163  73.8642 316.0312 14.95892806624333"
      },
      "geometry": {
        "type": "Point",
        "coordinates": [
          3.487511684372052,
          12.195787226461976
        ]
      }
    },
    {
      "type": "Feature",
      "properties": {
        "norad_id": 40998,
        "name": "IRIDIUM 33 DEB",
        "group": "iridium-33-debris",
        "lat": -72.68242352459703,
        "lon": -113.46223624423723,
        "alt_km": 755.7696069189278,
        "timestamp": "2025-12-09T23:33:24.240060+00:00",
        "meta_object_name": "IRIDIUM 33 DEB",
        "meta_object_id": "1997-051ABL",
        "meta_epoch": "2025-12-03T12:06:12.154176",
        "meta_mean_motion": 14.45043538,
        "meta_eccentricity": 0.00095708,
        "meta_inclination": 86.3836,
        "meta_ra_of_asc_node": 57.6004,
        "meta_arg_of_pericenter": 108.6038,
        "meta_mean_anomaly": 309.9308,
        "meta_ephemeris_type": 0,
        "meta_classification_type": "U",
        "meta_norad_cat_id": 40998,
        "meta_element_set_no": 999,
        "meta_rev_at_epoch": 6548,
        "meta_bstar": 0.00081638604,
        "meta_mean_motion_dot": 2.87e-05,
        "meta_mean_motion_ddot": 0,
        "tle_line1": "1 40998U 97051ABL 25337.50430734  .00002870  00000+0  81639-3 0  9994",
        "tle_line2": "2 40998  86.3836  57.6004 0009570 108.6038 309.9308 14.45043538 65487"
      },
      "geometry": {
        "type": "Point",
        "coordinates": [
          -113.46223624423723,
          -72.68242352459703
        ]
      }
    }
  ]
}